[{"OBJECT_NAME":"STARLINK-2682","OBJECT_ID":"2021-040N","EPOCH":"2026-03-09T22:07:13.011168","MEAN_MOTION":15.30195409,"ECCENTRICITY":0.00011742,"INCLINATION":53.1572,"RA_OF_ASC_NODE":177.0645,"ARG_OF_PERICENTER":86.6207,"MEAN_ANOMALY":273.4928,"EPHEMERIS_TYPE":0,"CLASSIFICATION_TYPE":"U","NORAD_CAT_ID":48440,"ELEMENT_SET_NO":999,"REV_AT_EPOCH":26671,"BSTAR":0.00032316809,"MEAN_MOTION_DOT":9.223e-5,"MEAN_MOTION_DDOT":0},{"OBJECT_NAME":"COSMOS 1461","OBJECT_ID":"1983-044A","EPOCH":"2026-03-09T23:27:40.254336","MEAN_MOTION":15.35034079,"ECCENTRICITY":0.00529955,"INCLINATION":64.9902,"RA_OF_ASC_NODE":19.3405,"ARG_OF_PERICENTER":227.9657,"MEAN_ANOMALY":131.6963,"EPHEMERIS_TYPE":0,"CLASSIFICATION_TYPE":"U","NORAD_CAT_ID":14064,"ELEMENT_SET_NO":999,"REV_AT_EPOCH":20189,"BSTAR":0.00068784348,"MEAN_MOTION_DOT":0.00024451,"MEAN_MOTION_DDOT":0}]
